ONEWEB-0709             
1 55172U 23004AJ  25362.60476804  .00000563  00000+0  15522-2 0  9992
2 55172  87.8841  55.0522 0000916  89.0889 271.0344 13.11415205143513
ONEWEB-0710             
1 55173U 23004AK  25362.65115129  .00000000  00000+0 -33185-4 0  9992
2 55173  87.9092  39.7760 0001825 102.6063 257.5273 13.17649254145120
ONEWEB-0711             
1 55174U 23004AL  25362.57594728 -.00000317  00000+0 -93114-3 0  9999
2 55174  87.8849  55.0331 0002205 120.6285 239.5060 13.11420358143470
ONEWEB-0713             
1 55175U 23004AM  25362.59459808  .00000392  00000+0  10706-2 0  9997
2 55175  87.8843  55.0313 0002003 113.3120 246.8219 13.11416863143460
ONEWEB-0715             
1 55176U 23004AN  25362.58950699  .00000268  00000+0  71978-3 0  9992
2 55176  87.8846  55.0327 0001094 112.6159 247.5085 13.11417743143504
ONEWEB-0716             
1 55177U 23004AP  25362.49251333  .00000040  00000+0  69681-4 0  9999
2 55177  87.9096  39.8076 0001863  90.4347 269.6998 13.17650887145100
ONEWEB-0717             
1 55178U 23004AQ  25362.62750329  .00000045  00000+0  82796-4 0  9991
2 55178  87.9104  39.7531 0001933 118.8065 241.3261 13.17650742145173
ONEWEB-0719             
1 55179U 23004AR  25362.63765288 -.00000015  00000+0 -71899-4 0  9994
2 55179  87.9103  39.7333 0002000  93.4907 266.6453 13.17648605145125
ONEWEB-0530             
1 55796U 23029A   25362.41040434  .00000184  00000+0  42008-3 0  9995
2 55796  87.9211 308.5442 0002014  92.9331 267.2033 13.20771486138602
ONEWEB-0534             
1 55797U 23029B   25362.54930300  .00000024  00000+0  27903-4 0  9991
2 55797  87.9213 308.5166 0001918  76.4825 283.6522 13.20770224138621
ONEWEB-0556             
1 55798U 23029C   25362.32832620  .00000056  00000+0  10563-3 0  9992
2 55798  87.9217 308.5610 0002771  76.7206 283.4236 13.20773348138590
ONEWEB-0562             
1 55799U 23029D   25362.61874438 -.00000031  00000+0 -10727-3 0  9995
2 55799  87.9210 308.4845 0002564  95.3973 264.7453 13.20772433138633
ONEWEB-0563             
1 55800U 23029E   25362.61243446 -.00000013  00000+0 -64641-4 0  9992
2 55800  87.9218 308.5144 0001990  72.9800 287.1552 13.20770287138622
ONEWEB-0564             
1 55801U 23029F   25362.60611934 -.00000059  00000+0 -17623-3 0  9990
2 55801  87.9210 308.4909 0002038  87.4268 272.7099 13.20771107138635
ONEWEB-0638             
1 55802U 23029G   25362.43252608  .00000257  00000+0  65795-3 0  9992
2 55802  87.8998 323.7884 0002262  84.3326 275.8062 13.14501596136964
ONEWEB-0639             
1 55803U 23029H   25362.44413705  .00000051  00000+0  95991-4 0  9995
2 55803  87.9210 338.9531 0001944  50.5734 309.5571 13.19725238136386
ONEWEB-0640             
1 55804U 23029J   25362.44203577  .00000111  00000+0  26370-3 0  9991
2 55804  87.9003 323.7751 0002506  72.7884 287.3520 13.14501070136984
ONEWEB-0641             
1 55805U 23029K   25362.43939229  .00000146  00000+0  33260-3 0  9995
2 55805  87.9214 338.9362 0001772  78.7237 281.4095 13.19726001136392
ONEWEB-0642             
1 55806U 23029L   25362.43465508  .00000148  00000+0  33817-3 0  9990
2 55806  87.9199 338.9588 0001569  54.2763 305.8515 13.19725883136386
ONEWEB-0643             
1 55807U 23029M   25362.41190640  .00000121  00000+0  29204-3 0  9997
2 55807  87.9002 323.7677 0001355  59.7753 300.3511 13.14502255136953
ONEWEB-0644             
1 55808U 23029N   25362.20245049  .00000223  00000+0  52520-3 0  9999
2 55808  87.9200 339.0141 0001601  72.0685 288.0622 13.19727697136359
ONEWEB-0645             
1 55809U 23029P   25362.45203765  .00000018  00000+0  11433-4 0  9997
2 55809  87.9196 338.9577 0002012  68.4298 291.7050 13.19725434136387
ONEWEB-0646             
1 55810U 23029Q   25362.46941223  .00000060  00000+0  11838-3 0  9993
2 55810  87.9208 338.9474 0001655  75.0598 285.0718 13.19725469136372
ONEWEB-0648             
1 55811U 23029R   25362.30407711 -.00000143  00000+0 -41918-3 0  9992
2 55811  87.9006 323.7507 0002152  54.6555 305.4776 13.14502185136944
ONEWEB-0649             
1 55812U 23029S   25362.49467568  .00000066  00000+0  13165-3 0  9994
2 55812  87.9208 338.9389 0001850  70.4143 289.7190 13.19725909136410
ONEWEB-0650             
1 55813U 23029T   25362.48994350  .00000076  00000+0  15809-3 0  9996
2 55813  87.9207 338.9450 0001693  67.8957 292.2355 13.19724919136385
ONEWEB-0652             
1 55814U 23029U   25362.43728105  .00000166  00000+0  41308-3 0  9998
2 55814  87.9003 323.7441 0001823  86.9969 273.1370 13.14501202136931
ONEWEB-0653             
1 55815U 23029V   25362.42142316  .00000250  00000+0  64036-3 0  9999
2 55815  87.9001 323.7365 0001937  83.4691 276.6659 13.14501659136962
ONEWEB-0654             
1 55816U 23029W   25362.34054714  .00000248  00000+0  63320-3 0  9997
2 55816  87.9002 323.7522 0001917  91.8431 268.2918 13.14502316136979
ONEWEB-0656             
1 55817U 23029X   25362.59980329  .00000058  00000+0  11080-3 0  9990
2 55817  87.9221 308.4509 0001980  91.7833 268.3527 13.20771648138638
ONEWEB-0657             
1 55818U 23029Y   25362.63681771  .00000077  00000+0  16068-3 0  9997
2 55818  87.9200 338.9172 0001383 109.0834 251.0448 13.19728404136416
ONEWEB-0658             
1 55819U 23029Z   25362.32882241  .00000024  00000+0  28062-4 0  9999
2 55819  87.9218 338.9348 0001595  70.6670 289.4635 13.19726878136389
ONEWEB-0660             
1 55820U 23029AA  25362.39445760 -.00000083  00000+0 -25714-3 0  9996
2 55820  87.9010 323.7217 0002024  74.6859 285.4494 13.14501353136966
ONEWEB-0661             
1 55821U 23029AB  25362.58158804  .00000333  00000+0  86313-3 0  9996
2 55821  87.9001 323.7485 0002083  77.1970 282.9393 13.14501142136978
ONEWEB-0662             
1 55822U 23029AC  25362.61647677 -.00000137  00000+0 -40357-3 0  9994
2 55822  87.9002 323.7481 0002018  74.5052 285.6300 13.14502430137022
ONEWEB-0663             
1 55823U 23029AD  25362.56984118  .00000129  00000+0  28505-3 0  9993
2 55823  87.9230 308.5244 0001941  65.7300 294.4036 13.20854903138629
ONEWEB-0664             
1 55824U 23029AE  25362.58717546  .00000035  00000+0  55253-4 0  9992
2 55824  87.9213 308.5242 0002189  81.7283 278.4099 13.20770828138626
ONEWEB-0665             
1 55825U 23029AF  25362.42617979  .00000248  00000+0  63334-3 0  9999
2 55825  87.9001 323.7581 0001960  71.4176 288.7166 13.14501883136971
ONEWEB-0666             
1 55826U 23029AG  25362.58084388  .00000466  00000+0  11132-2 0  9999
2 55826  87.9218 308.5143 0001593 100.3952 259.7361 13.20783814138636
ONEWEB-0667             
1 55827U 23029AH  25362.57455096  .00000028  00000+0  37164-4 0  9996
2 55827  87.9228 308.4502 0001988  76.0448 284.0906 13.20772219138625
ONEWEB-0669             
1 55828U 23029AJ  25362.56978847 -.00005850  00000+0 -14432-1 0  9990
2 55828  87.9229 308.4827 0003133  88.5344 271.6148 13.20763474138627
ONEWEB-0670             
1 55829U 23029AK  25362.32786615  .00000017  00000+0  10208-4 0  9993
2 55829  87.9000 323.7974 0002185  79.7589 280.3787 13.14504192136983
ONEWEB-0671             
1 55830U 23029AL  25362.47570952 -.00000027  00000+0 -99011-4 0  9998
2 55830  87.9209 338.9464 0001926  80.1686 279.9665 13.19726922136389
ONEWEB-0672             
1 55831U 23029AM  25362.56508194  .00000101  00000+0  21609-3 0  9996
2 55831  87.9217 308.4660 0001740  87.3087 272.8245 13.20771647138628
ONEWEB-0673             
1 55832U 23029AN  25362.45281517  .00000012  00000+0 -23500-5 0  9998
2 55832  87.9220 338.9327 0001932  82.1360 277.9992 13.19727127136389
ONEWEB-0674             
1 55833U 23029AP  25362.44838478  .00000016  00000+0  94820-5 0  9998
2 55833  87.9000 323.7510 0002252  80.0245 280.1139 13.14501166136980
ONEWEB-0675             
1 55834U 23029AQ  25362.46782956  .00000051  00000+0  94219-4 0  9990
2 55834  87.9196 338.9552 0001510  87.4143 272.7162 13.19725806136409
ONEWEB-0720             
1 55835U 23029AR  25362.38411041  .00000028  00000+0  37764-4 0  9992
2 55835  87.9201 338.9702 0001833  72.9058 287.2276 13.19725928136318
ONEWEB-0537             
1 56046U 23043A   25362.42942574  .00000055  00000+0  11132-3 0  9998
2 56046  87.9045 262.7718 0001434  79.1408 280.9884 13.16593170136498
ONEWEB-0538             
1 56047U 23043B   25362.65107386  .00000121  00000+0  28209-3 0  9995
2 56047  87.9045 262.7313 0001360  68.2590 291.8685 13.16593266136530
ONEWEB-0546             
1 56048U 23043C   25362.63841225  .00000070  00000+0  15031-3 0  9993
2 56048  87.9055 262.7273 0001376 100.0189 260.1097 13.16592704136524
ONEWEB-0547             
1 56049U 23043D   25362.47781040  .00000039  00000+0  63397-4 0  9998
2 56049  87.9232 278.0233 0001651  69.5728 290.5583 13.21826934135675
ONEWEB-0548             
1 56050U 23043E   25362.20696898 -.00000035  00000+0 -12513-3 0  9998
2 56050  87.9040 262.8175 0002095  78.5260 281.6106 13.16595936136463
ONEWEB-0549             
1 56051U 23043F   25362.16761374  .00000095  00000+0  19942-3 0  9993
2 56051  87.9226 278.0987 0001593  66.8904 293.2398 13.21827393135638
ONEWEB-0550             
1 56052U 23043G   25362.30584434  .00000015  00000+0  59370-5 0  9993
2 56052  87.9225 278.0663 0001782  78.5939 281.5395 13.21824565135654
ONEWEB-0551             
1 56053U 23043H   25362.33047540  .00000208  00000+0  51748-3 0  9992
2 56053  87.9003 293.3288 0001737  68.4558 291.6757 13.15547492133934
ONEWEB-0552             
1 56054U 23043J   25362.22519792 -.00000017  00000+0 -72697-4 0  9991
2 56054  87.9225 278.0910 0001829  67.0896 293.0431 13.21828067135647
ONEWEB-0553             
1 56055U 23043K   25362.64474338  .00000043  00000+0  78837-4 0  9993
2 56055  87.9045 262.7318 0001573  87.4840 272.6471 13.16592475136532
ONEWEB-0554             
1 56056U 23043L   25362.48009327  .00000071  00000+0  15150-3 0  9997
2 56056  87.9034 262.7772 0001846  77.7245 282.4093 13.16594092136490
